NORAD_CAT_ID,OBJECT_NAME,OBJECT_TYPE,EPOCH,MEAN_MOTION,ECCENTRICITY,INCLINATION,RA_OF_ASC_NODE,ARG_OF_PERICENTER,MEAN_ANOMALY,BSTAR,MEAN_MOTION_DOT,MEAN_MOTION_DDOT,TLE_LINE0,TLE_LINE1,TLE_LINE2,SEMIMAJOR_AXIS,PERIOD,APOGEE,PERIGEE,DECAYED
53854.0,STARLINK-4800,PAYLOAD,2023-01-19 00:50:39,15.08845062,0.0001328,53.2188,27.3933,116.2192,243.8937,0.00057956,8.949e-05,0.0,0 STARLINK-4800,1 53854U 22114AN  23019.03517968  .00008949  00000-0  57956-3 0  9994,2 53854  53.2188  27.3933 0001328 116.2192 243.8937 15.08845062 19619,6917.865,95.437,540.649,538.811,0.0
53854.0,STARLINK-4800,PAYLOAD,2023-01-19 10:22:57,15.08863215,0.0001198,53.2186,25.608,109.3631,250.7491,0.00053339,8.217e-05,0.0,0 STARLINK-4800,1 53854U 22114AN  23019.43260658  .00008217  00000-0  53339-3 0  9998,2 53854  53.2186  25.6080 0001198 109.3631 250.7491 15.08863215 19675,6917.809,95.436,540.503,538.846,0.0
53854.0,STARLINK-4800,PAYLOAD,2023-01-20 02:16:49,15.0883406,0.0001211999999999,53.2189,22.6361,97.0258,263.0872,-0.00021227,-3.664e-05,0.0,0 STARLINK-4800,1 53854U 22114AN  23020.09502107 -.00003664  00000-0 -21227-3 0  9994,2 53854  53.2189  22.6361 0001212  97.0258 263.0872 15.08834060 19779,6917.899,95.438,540.602,538.925,0.0
53854.0,STARLINK-4800,PAYLOAD,2023-01-20 07:02:59,15.08835575,0.0001179,53.2188,21.7438,93.8216,266.2911,-0.00016703,-2.945e-05,0.0,0 STARLINK-4800,1 53854U 22114AN  23020.29374062 -.00002945  00000-0 -16703-3 0  9997,2 53854  53.2188  21.7438 0001179  93.8216 266.2911 15.08835575 20349,6917.894,95.438,540.575,538.943,0.0
53854.0,STARLINK-4800,PAYLOAD,2023-01-21 06:53:46,15.08840822,0.0001087,53.2183,17.2826,92.1853,267.9263,9.8375e-06,-1.31e-06,0.0,0 STARLINK-4800,1 53854U 22114AN  23021.28734056 -.00000131  00000-0  98375-5 0  9991,2 53854  53.2183  17.2826 0001087  92.1853 267.9263 15.08840822 19956,6917.878000000001,95.438,540.495,538.991,0.0
53854.0,STARLINK-4800,PAYLOAD,2023-01-22 08:19:56,15.08857394,0.0001227,53.2187,12.5258,82.3929,277.7202,0.00053773,8.284e-05,0.0,0 STARLINK-4800,1 53854U 22114AN  23022.34717764  .00008284  00000-0  53773-3 0  9993,2 53854  53.2187  12.5258 0001227  82.3929 277.7202 15.08857394 20112,6917.826999999999,95.436,540.5409999999999,538.8430000000001,0.0
53854.0,STARLINK-4800,PAYLOAD,2023-01-22 16:16:52,15.08843903,0.0001838,53.2189,11.0396,74.4139,285.7056,0.00020392,2.959e-05,0.0,0 STARLINK-4800,1 53854U 22114AN  23022.67838344  .00002959  00000-0  20392-3 0  9991,2 53854  53.2189  11.0396 0001838  74.4139 285.7056 15.08843903 20166,6917.868,95.437,541.005,538.462,0.0
53854.0,STARLINK-4800,PAYLOAD,2023-01-23 04:59:57,15.08835053,0.0001395999999999,53.2183,8.661,75.6262,284.4885,-6.3887e-06,-3.9e-06,0.0,0 STARLINK-4800,1 53854U 22114AN  23023.20830632 -.00000390  00000-0 -63887-5 0  9990,2 53854  53.2183   8.6610 0001396  75.6262 284.4885 15.08835053 20242,6917.896,95.438,540.726,538.795,0.0
53854.0,STARLINK-4800,PAYLOAD,2023-01-24 08:01:30,15.08853087,0.0001273,53.2188,3.6014,89.4249,270.6889,0.00054783,8.445e-05,0.0,0 STARLINK-4800,1 53854U 22114AN  23024.33438401  .00008445  00000-0  54783-3 0  9993,2 53854  53.2188   3.6014 0001273  89.4249 270.6889 15.08853087 20419,6917.84,95.437,540.586,538.825,0.0
53854.0,STARLINK-4800,PAYLOAD,2023-01-25 04:41:31,15.0884884,0.0001143,53.2188,359.7392,95.647,264.4652,0.00046993,7.201e-05,0.0,0 STARLINK-4800,1 53854U 22114AN  23025.19550791  .00007201  00000-0  46993-3 0  9998,2 53854  53.2188 359.7392 0001143  95.6470 264.4652 15.08848840 20548,6917.853,95.437,540.509,538.928,0.0
53854.0,STARLINK-4800,PAYLOAD,2023-01-26 07:43:05,15.08849774,0.0001399,53.2193,354.6822,110.2276,249.8866,0.00034467,5.203e-05,0.0,0 STARLINK-4800,1 53854U 22114AN  23026.32158738  .00005203  00000-0  34467-3 0  9992,2 53854  53.2193 354.6822 0001399 110.2276 249.8866 15.08849774 20717,6917.851,95.437,540.683,538.748,0.0
53854.0,STARLINK-4800,PAYLOAD,2023-01-27 05:58:29,15.08846455,0.0001269,53.2194,350.521,84.8356,275.2781,0.00020357,2.954e-05,0.0,0 STARLINK-4800,1 53854U 22114AN  23027.24894883  .00002954  00000-0  20357-3 0  9995,2 53854  53.2194 350.5210 0001269  84.8356 275.2781 15.08846455 20852,6917.861,95.437,540.604,538.8480000000001,0.0
53854.0,STARLINK-4800,PAYLOAD,2023-01-27 07:33:52,15.08848037,0.0001266,53.2193,350.2232,85.9957,274.118,0.00023888,3.517e-05,0.0,0 STARLINK-4800,1 53854U 22114AN  23027.31518823  .00003517  00000-0  23888-3 0  9998,2 53854  53.2193 350.2232 0001266  85.9957 274.1180 15.08848037 21409,6917.856,95.437,540.597,538.845,0.0
53854.0,STARLINK-4800,PAYLOAD,2023-01-28 04:13:53,15.08847026,0.0001134,53.2184,346.3594,89.7234,270.3889,0.00028059,4.181e-05,0.0,0 STARLINK-4800,1 53854U 22114AN  23028.17631073  .00004181  00000-0  28059-3 0  9999,2 53854  53.2184 346.3594 0001134  89.7234 270.3889 15.08847026 20994,6917.859,95.437,540.508,538.939,0.0
53854.0,STARLINK-4800,PAYLOAD,2023-01-28 05:49:16,15.08850229,0.0001118,53.2185,346.061,89.826,270.2861,0.00038849,5.902e-05,0.0,0 STARLINK-4800,1 53854U 22114AN  23028.24254934  .00005902  00000-0  38849-3 0  9994,2 53854  53.2185 346.0610 0001118  89.8260 270.2861 15.08850229 21543,6917.849,95.437,540.488,538.941,0.0
53854.0,STARLINK-4800,PAYLOAD,2023-01-28 21:43:07,15.08839876,0.0001112,53.2181,343.0879,87.4245,272.6875,5.2277e-05,5.44e-06,0.0,0 STARLINK-4800,1 53854U 22114AN  23028.90495333  .00000544  00000-0  52277-4 0  9996,2 53854  53.2181 343.0879 0001112  87.4245 272.6875 15.08839876 21102,6917.881,95.438,540.515,538.976,0.0
53854.0,STARLINK-4800,PAYLOAD,2023-01-29 05:40:03,15.08848951,0.000109,53.218,341.6009,85.3909,274.7207,0.00018986,2.736e-05,0.0,0 STARLINK-4800,1 53854U 22114AN  23029.23614927  .00002736  00000-0  18986-3 0  9998,2 53854  53.2180 341.6009 0001090  85.3909 274.7207 15.08848951 21150,6917.853,95.437,540.472,538.964,0.0
53854.0,STARLINK-4800,PAYLOAD,2023-01-29 19:58:31,15.08840738,0.0001103,53.2179,338.9249,87.3627,272.7491,0.00011198,1.495e-05,0.0,0 STARLINK-4800,1 53854U 22114AN  23029.83231267  .00001495  00000-0  11198-3 0  9995,2 53854  53.2179 338.9249 0001103  87.3627 272.7491 15.08840738 21245,6917.878,95.438,540.506,538.98,0.0
53854.0,STARLINK-4800,PAYLOAD,2023-01-29 21:33:54,15.08844807,0.0001091,53.218,338.6275,86.9226,273.1891,8.5276e-05,1.07e-05,0.0,0 STARLINK-4800,1 53854U 22114AN  23029.89855086  .00001070  00000-0  85276-4 0  9990,2 53854  53.2180 338.6275 0001091  86.9226 273.1891 15.08844807 21799,6917.866,95.437,540.485,538.976,0.0
53854.0,STARLINK-4800,PAYLOAD,2023-01-30 05:30:50,15.08853405,0.0001114,53.2178,337.1407,87.1042,273.0078,0.00025606,3.791e-05,0.0,0 STARLINK-4800,1 53854U 22114AN  23030.22974658  .00003791  00000-0  25606-3 0  9998,2 53854  53.2178 337.1407 0001114  87.1042 273.0078 15.08853405 21309,6917.839,95.437,540.475,538.934,0.0
53854.0,STARLINK-4800,PAYLOAD,2023-01-31 05:21:37,15.08848351,0.0001206,53.2176,332.6805,91.5681,268.5449,0.0002245,3.288e-05,0.0,0 STARLINK-4800,1 53854U 22114AN  23031.22334977  .00003288  00000-0  22450-3 0  9998,2 53854  53.2176 332.6805 0001206  91.5681 268.5449 15.08848351 21450,6917.855,95.437,540.554,538.886,0.0
53854.0,STARLINK-4800,PAYLOAD,2023-01-31 19:40:05,15.08842819,0.0001363,53.2167,330.0026,99.5685,260.5461,0.00016333,2.313e-05,0.0,0 STARLINK-4800,1 53854U 22114AN  23031.81951173  .00002313  00000-0  16333-3 0  9997,2 53854  53.2167 330.0026 0001363  99.5685 260.5461 15.08842819 21542,6917.872,95.437,540.68,538.794,0.0
53854.0,STARLINK-4800,PAYLOAD,2023-02-01 05:12:24,15.08850986,0.0001442,53.2168,328.2181,98.8274,261.2882,0.00038697,5.878e-05,0.0,0 STARLINK-4800,1 53854U 22114AN  23032.21694783  .00005878  00000-0  38697-3 0  9999,2 53854  53.2168 328.2181 0001442  98.8274 261.2882 15.08850986 22144,6917.847,95.437,540.709,538.714,0.0
53854.0,STARLINK-4800,PAYLOAD,2023-02-02 01:52:25,15.08839271,0.0001439,53.2181,324.3527,91.3206,268.7952,0.00012006,1.623e-05,0.0,0 STARLINK-4800,1 53854U 22114AN  23033.07807564  .00001623  00000-0  12006-3 0  9997,2 53854  53.2181 324.3527 0001439  91.3206 268.7952 15.08839271 21737,6917.883,95.438,540.743,538.752,0.0
53854.0,STARLINK-4800,PAYLOAD,2023-02-02 05:03:11,15.08842195,0.0001438,53.2184,323.7577,90.0686,270.0471,0.00018206,2.611e-05,0.0,0 STARLINK-4800,1 53854U 22114AN  23033.21055504  .00002611  00000-0  18206-3 0  9998,2 53854  53.2184 323.7577 0001438  90.0686 270.0471 15.08842195 22298,6917.874,95.437,540.733,538.744,0.0
53854.0,STARLINK-4800,PAYLOAD,2023-02-03 03:18:35,15.08856423,0.0001374,53.2177,319.5965,78.1856,281.929,0.00044343,6.779e-05,0.0,0 STARLINK-4800,1 53854U 22114AN  23034.13790839  .00006779  00000-0  44343-3 0  9997,2 53854  53.2177 319.5965 0001374  78.1856 281.9290 15.08856423 21893,6917.83,95.437,540.646,538.745,0.0
53854.0,STARLINK-4800,PAYLOAD,2023-02-03 19:12:26,15.08844803,0.0001159,53.2173,316.6228,84.8277,275.2848,0.00014841,2.075e-05,0.0,0 STARLINK-4800,1 53854U 22114AN  23034.80031219  .00002075  00000-0  14841-3 0  9996,2 53854  53.2173 316.6228 0001159  84.8277 275.2848 15.08844803 21996,6917.866,95.437,540.532,538.929,0.0
53854.0,STARLINK-4800,PAYLOAD,2023-02-04 04:44:45,15.08847098,0.0001335,53.2178,314.8391,90.4655,269.649,0.00025338,3.748e-05,0.0,0 STARLINK-4800,1 53854U 22114AN  23035.19775083  .00003748  00000-0  25338-3 0  9994,2 53854  53.2178 314.8391 0001335  90.4655 269.6490 15.08847098 22597,6917.859,95.437,540.647,538.8,0.0
53854.0,STARLINK-4800,PAYLOAD,2023-02-04 22:14:00,15.08843139,0.0001309,53.2182,311.568,91.0745,269.0397,6.8475e-05,8.02e-06,0.0,0 STARLINK-4800,1 53854U 22114AN  23035.92639193  .00000802  00000-0  68475-4 0  9994,2 53854  53.2182 311.5680 0001309  91.0745 269.0397 15.08843139 22160,6917.871,95.437,540.641,538.83,0.0
53854.0,STARLINK-4800,PAYLOAD,2023-02-05 03:00:09,15.0884727,0.0001362,53.2175,310.6763,84.0768,276.0379,0.00030075,4.503e-05,0.0,0 STARLINK-4800,1 53854U 22114AN  23036.12511041  .00004503  00000-0  30075-3 0  9994,2 53854  53.2175 310.6763 0001362  84.0768 276.0379 15.08847270 22731,6917.858,95.437,540.665,538.781,0.0
